[{"OBJECT_NAME":"STARLINK-31369","OBJECT_ID":"2024-031L","EPOCH":"2026-03-09T21:23:50.417664","MEAN_MOTION":15.30206483,"ECCENTRICITY":0.00014075,"INCLINATION":53.1611,"RA_OF_ASC_NODE":295.7854,"ARG_OF_PERICENTER":83.3177,"MEAN_ANOMALY":276.7984,"EPHEMERIS_TYPE":0,"CLASSIFICATION_TYPE":"U","NORAD_CAT_ID":58975,"ELEMENT_SET_NO":999,"REV_AT_EPOCH":11654,"BSTAR":9.8985777e-5,"MEAN_MOTION_DOT":2.574e-5,"MEAN_MOTION_DDOT":0},{"OBJECT_NAME":"OBJECT K","OBJECT_ID":"2024-205K","EPOCH":"2026-03-09T22:22:01.331040","MEAN_MOTION":15.27932792,"ECCENTRICITY":0.00106729,"INCLINATION":97.417,"RA_OF_ASC_NODE":146.2172,"ARG_OF_PERICENTER":37.4736,"MEAN_ANOMALY":322.7246,"EPHEMERIS_TYPE":0,"CLASSIFICATION_TYPE":"U","NORAD_CAT_ID":61903,"ELEMENT_SET_NO":999,"REV_AT_EPOCH":7347,"BSTAR":0.00067315144,"MEAN_MOTION_DOT":0.00018331,"MEAN_MOTION_DDOT":0}]
